[{"OBJECT_NAME":"UTMN 2 (RS27S)","OBJECT_ID":"2023-091AP","EPOCH":"2026-03-09T23:09:07.917408","MEAN_MOTION":15.29495965,"ECCENTRICITY":0.00097379,"INCLINATION":97.5194,"RA_OF_ASC_NODE":134.949,"ARG_OF_PERICENTER":76.0788,"MEAN_ANOMALY":284.1534,"EPHEMERIS_TYPE":0,"CLASSIFICATION_TYPE":"U","NORAD_CAT_ID":57203,"ELEMENT_SET_NO":999,"REV_AT_EPOCH":14936,"BSTAR":0.00056135701,"MEAN_MOTION_DOT":0.00016013,"MEAN_MOTION_DDOT":0},{"OBJECT_NAME":"STARLINK-34320","OBJECT_ID":"2025-117Q","EPOCH":"2026-03-09T07:27:00.129888","MEAN_MOTION":15.301919,"ECCENTRICITY":0.00013198,"INCLINATION":53.1616,"RA_OF_ASC_NODE":41.6498,"ARG_OF_PERICENTER":84.6365,"MEAN_ANOMALY":275.4786,"EPHEMERIS_TYPE":0,"CLASSIFICATION_TYPE":"U","NORAD_CAT_ID":64217,"ELEMENT_SET_NO":999,"REV_AT_EPOCH":4446,"BSTAR":0.00083722431,"MEAN_MOTION_DOT":0.00024513,"MEAN_MOTION_DDOT":0}]
